IRIDIUM 112             
1 41925U 17003J   26003.47983882  .00000090  00000+0  25239-4 0  9995
2 41925  86.4004 157.1361 0001751  95.5324 264.6071 14.34218322469668
IRIDIUM 111             
1 41926U 17003K   26003.67646073  .00000029  00000+0  33153-5 0  9993
2 41926  86.4003 157.1206 0002060  96.1078 264.0353 14.34217760469676
IRIDIUM 113             
1 42803U 17039A   26003.58665750 -.00000037  00000+0 -20151-4 0  9994
2 42803  86.3953  30.9597 0001950  96.8154 263.3264 14.34217126447590
IRIDIUM 123             
1 42804U 17039B   26003.62813657  .00000094  00000+0  26521-4 0  9999
2 42804  86.3946  62.4268 0002447 100.3408 259.8064 14.34217481446369
IRIDIUM 120             
1 42805U 17039C   26003.58031508  .00000018  00000+0 -71707-6 0  9997
2 42805  86.3944  30.7662 0002273  86.8763 273.2693 14.34217388447582
IRIDIUM 115             
1 42806U 17039D   26003.59649485  .00000637  00000+0  18340-3 0  9995
2 42806  86.4480  30.8657 0002698  93.5978 266.5532 14.43278006450527
IRIDIUM 118             
1 42807U 17039E   26003.59008063 -.00000005  00000+0 -87378-5 0  9997
2 42807  86.3945  62.4413 0002008  99.1378 261.0046 14.34217350446356
IRIDIUM 117             
1 42808U 17039F   26003.60910776  .00000070  00000+0  18094-4 0  9991
2 42808  86.3944  62.3925 0002320 100.2522 259.8935 14.34218054446382
